STARLINK-35843          
1 67606U 26018T   26051.13034624  .00177600  00000+0  11634-2 0  9996
2 67606  97.2831 116.0713 0001769 114.9461 245.1988 15.75261281  4543
STARLINK-36351          
1 67607U 26018U   26051.16670139 -.00036463  00000+0 -24469-3 0  9991
2 67607  97.2843 116.1451 0001357  74.7876 209.3426 15.75185278  4587
STARLINK-36411          
1 67608U 26018V   26051.10562716  .00258982  00000+0  13055-2 0  9995
2 67608  97.2853 116.1030 0002315 119.1155 241.0346 15.80941101  4542
STARLINK-36312          
1 67609U 26018W   26051.16670139 -.00004401  00000+0 -28682-4 0  9992
2 67609  97.2845 116.1503 0001472 109.5939 186.5443 15.75166084  4583
STARLINK-36387          
1 67610U 26018X   26051.10300145  .00249905  00000+0  12621-2 0  9997
2 67610  97.2857 116.1068 0001408  94.6114 265.5315 15.80925712  4541
STARLINK-36636          
1 67611U 26018Y   26051.16523197  .00105956  00000+0  54561-3 0  9995
2 67611  97.2870 116.1687 0001916  82.0921 278.0565 15.80879244  4550
STARLINK-36407          
1 67612U 26018Z   26051.16670139 -.00049106  00000+0 -33018-3 0  9995
2 67612  97.2848 116.1669 0001531  85.2989 246.8246 15.75193768  4630
STARLINK-36597          
1 67613U 26018AA  26051.16329350  .00142887  00000+0  73224-3 0  9993
2 67613  97.2852 116.1766 0001859  62.7090 297.4367 15.80884549  4557
NEONSAT-1A              
1 67614U 26019A   26050.92655100  .00003252  00000+0  21714-3 0  9992
2 67614  97.4106 175.1425 0012173 230.7622 129.2527 15.07636571  3141
ELECTRON KICK STAGE R/B 
1 67616U 26019C   26050.86915053  .00448324  61631-4  18737-2 0  9998
2 67616  97.4031 176.7416 0162219 187.0200 172.8791 15.68297502  3242
STARLINK-36548          
1 67617U 26020A   26050.94089969  .00164959  00000+0  99466-3 0  9994
2 67617  42.9968 250.1525 0001158 252.3981 107.6762 15.76405715  3285
STARLINK-36601          
1 67618U 26020B   26050.90468945  .00689361  00000+0  29532-2 0  9991
2 67618  42.9979 249.8590 0003254 300.6991  59.3560 15.82518971  3287
